CODE,LOCATION,ADDRESS,LATITUDE,LONGITUDE,BRAND
L01,Baseline,"760 Dr Danister De Silva Mawatha, Colombo 00900",6.9424531,79.8766013,Laugfs
L02,Biyagama,Laugfs Super Market Biyagama,6.940681,79.984425,Laugfs
L03,Boralesgamuwa,"RWR2+JMV, Horana Rd, Boralesgamuwa",6.8334215,79.8945241,Laugfs
L04,Chilaw,"HQJW+F5W, Chilaw",7.5817787,79.7957388,Laugfs
L05,Delgoda,"No.48/7 New Kandy Rd, 11650",6.9880219,80.011381,Laugfs
L06,DS Borella,"WV5G+7GX, Colombo 00700",6.908246,79.8737825,Laugfs
L07,Ederamulla,"XWW7+VQ, No.291/1/C, Wattala",6.995779,79.9132546,Laugfs
L08,Hanwella,"40 High Level Rd, Hanwella",6.9023252,80.0848934,Laugfs
L09,Havelock Town,"252 Havelock Pl, Colombo 00500",6.8856692,79.8630631,Laugfs
L10,Hokandara,"VXJ5+4V7, Hokandara Rd, Hokandara",6.8802812,79.9570883,Laugfs
L11,Jubilee Post,"351 Galle Rd, Colombo 00600",6.8354837,79.8110733,Laugfs
L12,Kaduwela,"WXPJ+QVF, AB10, Kaduwela",6.9369282,79.9796037,Laugfs
L13,Kandana,"No.241 Negombo Rd, Ragama",7.0366682,79.896473,Laugfs
L14,Katubedda,"RV4M+3PQ, Soysapura Rd, Moratuwa",6.7888246,79.8641574,Laugfs
L15,Katunayaka,"5WHC+979, Katunayake-Veyangoda Rd, Katunayake",7.1581949,79.8896257,Laugfs
L16,Kelaniya,"310 Waragoda Rd, Peliyagoda",6.9583661,79.9050873,Laugfs
L17,Kesbawa,"107 Colombo - Horana Rd, Piliyandala",6.7951062,79.9336578,Laugfs
L18,Kiribathgoda,"60 Kandy - Colombo Rd, Kiribathgoda",6.9797444,79.926612,Laugfs
L19,Kohuwala,"VV8P+J25, B84, Nugegoda",6.8665245,79.8825381,Laugfs
L20,Kolonnawa,"WVJQ+XPH, Road, Kolonnawa 10600",6.9324308,79.8867749,Laugfs
L21,Koswatta,"WW5P+8F2, B240, Sri Jayawardenepura Kotte",6.9082667,79.9335686,Laugfs
L22,Kottawa,"364 Avissawella Rd, Pannipitiya 10230",6.8421626,79.9601778,Laugfs
L23,Kurunegala,"Ambepussa - Kurunegala - Trincomalee Hwy, Trincomalee",7.474081,80.3516214,Laugfs
L24,Maharagama,"129 High Level Rd, Maharagama 10280",6.84507,79.9279104,Laugfs
L25,Mattegoda,"No 193/20H, Polgasowita",6.8113771,79.9730276,Laugfs
L26,Moratuwa,"06 Old Galle Rd, Moratuwa 10400",6.8052121,79.8081556,Laugfs
L27,Negombo,"6V33+222, Negombo",7.2060848,79.8440507,Laugfs
L28,Negombo-2,"Rajapakse Broadway, Negombo",7.2096481,79.8359927,Laugfs
L29,Nugegoda,"VV8P+J25, B84, Nugegoda",6.8665245,79.866064,Laugfs
L30,Pelawatta,"VWRH+C5X, Sri Jayawardenepura Kotte",6.8911186,79.9254149,Laugfs
L31,Pepiliyana,"No: 68 Pepiliyana Rd, Nugegoda",6.8615546,79.8925084,Laugfs
L32,Pitakotte,"No.338 Kotte Rd, Sri Jayawardenepura Kotte 10100",6.8832052,79.8994188,Laugfs
L33,Raddolugama,"4VQX+5WV, Katunayake",7.1379864,79.897225,Laugfs
L34,Rajagiriya,"1070 Sri Jayawardenepura Mawatha, Sri Jayawardenepura Kotte 10100",6.907645,79.8980634,Laugfs
L35,Rathmalana,"Gonaakowila S weerasena silva rd, ratmalana 5A, S Weerasena silva mw",6.8113568,79.8344401,Laugfs
L36,Seeduwa,"4VJG+CJ5, Negombo",7.1310197,79.8740202,Laugfs
L37,Wattala,"No .08 Hendala Rd, Wattala 11300",6.9910198,79.8832669,Laugfs
L38,Wellawatta,"351 Galle Rd, Colombo 00600",6.8715543,79.8525956,Laugfs
L39,Werahera,"RWG5+36R, Boralesgamuwa 10290",6.825243,79.9054252,Laugfs
14001,DELKANDA,"Nugegoda Delkanda Apartment, High Level Rd, Nugegoda 10250",6.8618093,79.9021526,Softlogic Supermarket
14003,ASIRI CENTRAL,"3rd Place, Asiri Central Hospital, 01000",6.9205391,79.8631308,Softlogic Supermarket
14004,ASIRI KANDY,Softlogic GLOMARK Essentials - Peradaniya,7.2742831,80.6087316,Softlogic Supermarket
14005,KURUNEGALA,"75 Colombo Road, Kurunegala",7.4844539,80.3612803,Softlogic Supermarket
14006,KOTTAWA,"1285 High Level Rd, Pannipitiya",6.8392171,79.9763988,Softlogic Supermarket
14007,NEGOMBO,"180 St Joseph's St, Negombo 11500",7.2055266,79.845281,Softlogic Supermarket
14008,NAWALA,"268 Nawala Rd, Sri Jayawardenepura Kotte 10100",6.888536,79.8850743,Softlogic Supermarket
14009,MOUNT - LAVINIA,"282 Galle Rd, Dehiwala-Mount Lavinia 10370",6.8363241,79.8640786,Softlogic Supermarket
14010,MALABE,"604 Athurugiriya Rd, Malabe 10115",6.8940246,79.958491,Softlogic Supermarket
14011,CR FC,"28 Malalasekara Mawatha, Colombo 00700",6.9011878,79.8684319,Softlogic Supermarket
14012,THALAWATHUGODA,"559/551, Pelawatte Road, 6 Battaramulla - Pannipitiya Rd, Battaramulla 10120",6.8840289,79.9305048,Softlogic Supermarket
14013,KANDANA,"135 Negombo Road, Rilaulla, Kandana",7.0553708,79.8936074,Softlogic Supermarket
14014,KANDY - MCC,"ODEL Mall, Kandy",7.2860018,80.6237905,Softlogic Supermarket
14015,WATTALA,"XVVR+GV9, Wattala 11300",6.9937847,79.8896595,Softlogic Supermarket
A01,Wattala SC,"155 Old Negombo Rd, Wattala 11300",6.983389,79.885627,Arpico
A02,Borelasgamuwa SS,"RWR3+C24, Boralesgamuwa",6.8410022,79.899986,Arpico
A03,Hyde Park SC,"2, 69 Hyde Park Corner, Colombo 00200",6.9175873,79.8585189,Arpico
A04,Nawinna SC,"310 High Level Rd, Maharagama 10280",6.8529935,79.9141107,Arpico
A05,Matara SC,"WGVF+V7H, A2 Matara Road, Matara",5.9446764,80.5137183,Arpico
A06,Panadura SC,"542 Galle Rd, Panadura",6.7076101,79.9055465,Arpico
A07,Kottawa SS,"296 Avissawella Rd, Pannipitiya",6.8365824,79.9649907,Arpico
A08,Galle SC,"181 Matara Rd, Galle 80000",6.0371021,80.2275266,Arpico
A09,Malabe SS,"No. 741, Malabe",6.9061348,79.9459883,Arpico
A10,Kurunegala SC,"F9G4+XXF, 3 වන පටුමග, Kurunegala",7.4774404,80.3383712,Arpico
A11,Kohuwala SC,"S, 89 S. De S. Jayasinghe Mawatha, Dehiwala-Mount Lavinia",6.879293,79.8561455,Arpico
A12,Homagama SC,"47 Avissawella Rd, Homagama 10200",6.8406915,79.9768526,Arpico
A13,Yakkala SS,"32MH+6XF, Yakkala",7.0830697,80.0273303,Arpico
A14,Kegalle SC,"783R+FH7 Arpico super center, Kegalle",7.2536707,80.3388491,Arpico
A15,Thalawathugoda SC,"junction, 1034/V, Kumarage watta, Battaramulla - Pannipitiya Rd, Sri Jayawardenepura Kotte",6.8523564,79.9023066,Arpico
A16,Wattala-2 ADA,"Gemunu Palace Cinema, Near, Negombo - Colombo Main Rd, Wattala 11300",6.983389,79.885627,Arpico
A17,Kochchikade SC,"7V97+P4M, Negombo",7.2693498,79.8602015,Arpico
A18,Kundasale SS,"7MJF+2X3, Nattarampota 20168",7.2800245,80.6723297,Arpico
A19,Katugastota SC,"Nittawela Junction Bus Stop, Katugastota Rd, Kandy",7.3171252,80.6272529,Arpico
A20,Minuwangoda SC,"5WCV+M93, Katunayake Road, Minuwangoda",7.1716643,79.940845,Arpico
A21,Katukurunda SC,Katukurunda 12000,6.5587753,79.9659406,Arpico
A22,Seeduwa SC,"No: 600 Negombo Rd, Seeduwa 11410",7.1431849,79.8719422,Arpico
A23,Kiribathgoda SS,"123 Kandy Rd, Kelaniya 11600",7.0595398,79.8295168,Arpico
A24,Ragama Daily,Arpico Daily - Ragama,7.0274426,79.9224167,Arpico
A25,Athurugiriya Daily,112 Athurugiriya Rd,6.8783428,79.986067,Arpico
A26,Weliweriya Daily,"132/24 B New Kandy Rd, Weliweriya",7.0301822,80.0264964,Arpico
A27,Kuliyapitiya Daily,"F2FW+926, Kuliyapitiya",7.4734048,80.0424318,Arpico
A28,Ambalangoda Daily,"63M3+5RF, Ambalangoda",6.2329414,80.0519811,Arpico
A29,Wennapuwa Daily,"8RXQ+WCG, Peragas Junction, Road,, Wennappuwa",7.3498185,79.835991,Arpico
A30,Aththiditya Daily,"RVMP+76X, B389, Dehiwala-Mount Lavinia",6.8054405,79.4421323,Arpico
A31,Kandana Daily,"88 Negombo Rd, Kandana",7.0512105,79.8940493,Arpico
A32,Mulleriyawa Daily,"WWGM+Q8M, Colombo",6.9369712,79.9799444,Arpico
A33,Chilaw Daily,"HQGX+H9P, Chilaw",7.5764624,79.7958755,Arpico
A34,Ambatenna Daily,"48 Matale Rd, Ambatenna",7.3481636,80.6140162,Arpico
A35,Watareka Daily,"Avissawella Rd, Padukka",6.8558974,80.0634892,Arpico
A36,Rathnapura Main Arpico Daily,Arpico Daily - Ratnapura,6.6808602,80.4104634,Arpico
A37,Anuradhapura Arpico Daily,"Anuradhapura, Sri Lanka",8.35647,80.41726,Arpico
A38,Pelmadulla Arpico Daily,"Pelmadulla Division, Ratnapura, Sri Lanka",6.6475,80.5153,Arpico
A39,Battaramulla SC,"Arpico Supercentre, 1034/V Pannipitiya Road, Sri Jayawardenepura Kotte 10116, Sri Lanka",6.8834017,79.93387583,Arpico
A40,Arpico SuperCentre Dehiwala,"Arpico Supercentre, 1034/V Pannipitiya Road, Sri Jayawardenepura Kotte 10116, Sri Lanka",6.883145,79.933756,Arpico
A41,Arpico SuperCentre Gampaha,"Arpico Super Gampaha, Gampaha-Yakkala Road, Yakkala 11870, Sri Lanka",7.09165735,79.99965831,Arpico
A42,Arpico SuperCentre Wellawatte,"Wellawatte, Colombo, Western Province, Sri Lanka",6.8743844,79.8591176,Arpico
A43,Arpico SuperCentre Negombo,"Arpico Supercentre, 1034/V Pannipitiya Road, Sri Jayawardenepura Kotte 10116, Sri Lanka",6.883145,79.933756,Arpico
A44,Arpico SuperCentre Kandy,"Arpico Furniture, Kandy 32350, Sri Lanka",7.280639,80.620608,Arpico
A45,Arpico SuperCentre Piliyandala,"Arpico Supercentre, 1034/V Pannipitiya Road, Sri Jayawardenepura Kotte 10116, Sri Lanka",6.8834017,79.93387583,Arpico
A46,Arpico SuperCentre Kalutara,"Arpico Supercentre, 1034/V Pannipitiya Road, Sri Jayawardenepura Kotte 10116, Sri Lanka",6.883145,79.933756,Arpico
A47,Arpico SuperCentre Gelioya,"Arpico Supercentre, Colombo—Matara Road, Thotamuna, Matara 81750, Sri Lanka",5.9448271,80.52328213,Arpico
A48,Arpico SuperCentre Haloluwa,"Arpico Supercentre, 1034/V Pannipitiya Road, Sri Jayawardenepura Kotte 10116, Sri Lanka",6.883145,79.933756,Arpico
1017,FC STAPLES STREET,"21,  Staples  Street,  Colombo  02",6.935649,79.845775,Cargills
1018,FC KANDY,"3 ,  Dalada  Veedia ,  Kandy .",7.296226,80.648898,Cargills
1033,FC MAJESTIC CITY,"Majestic  City  ,  10 , Station Road , Colombo  04",6.8937047,79.8545846,Cargills
1015,FC BANDARAWELA,"7 , Welimada  Road ,  Bandarawella",6.415518,80.851091,Cargills
1020,FC NUWARA ELIYA,"90 , Kandy  Road ,  Nuwaraeliya .",6.411189,80.846002,Cargills
1005,FC FORT,"40 , York Street ,  Fort ,  Colombo  01",6.9363463,79.8451648,Cargills
1076,FC KURUNEGALA,"44 , Negombo  Road , Kurunegala .",7.4846002,80.3549741,Cargills
1083,FC MATARA,"60 , Anagarika Dharmapala Mw , Matara .",5.947822,80.5482919,Cargills
1084,FC WATTALA,"315 , Negombo  Road , Wattala .",6.984836,79.888517,Cargills
1106,FC DEHIWALA,"65 A ,  Galle  Road , Dehiwala .",6.8340506,79.8673709,Cargills
1104,FC RATNAPURA,"Municipal Commercial Complex ,Old Bus Stand Site,Nagarasaba Pedesa, Ratnapura",7.167865,79.947151,Cargills
1105,FC COLPETTY,"407 , Galle  Road , Colpetty .",6.93407,80.135575,Cargills
1107,EX THIMBIRIGASYAYA,"90 , Thimbirigasyaya   Road , Colombo 05",6.411189,80.846002,Cargills
1201,EX MATARA,"No. 1,  Bus Stand Site, Matara",8.669216,81.206152,Cargills
1301,EX MALIGAWATTE,"301, Pradeepa Mawatha, Colombo 10",6.934791,79.869408,Cargills
1111,FC KEGALLE,"447 / 2 , Kandy  Road , Kegalla .",7.2523,80.3436,Cargills
1114,FC ALUTHGAMA,"303 , Main  Street , Aluthgama .",6.43333,79.99972,Cargills
1108,FC KOTAHENA,"108 , George R. de Silva  Mw , Kotahena .",6.9480164,79.8598246,Cargills
1117,FC AMBALANGODA,"98 A , New Road , Ambalangoda .",6.2355,80.0538,Cargills
1109,FC PARK ROAD,"213 , Park  Road , Off Elvitigala Mw , Colombo 05",7.565013,79.802067,Cargills
1115,FC BERUWELA,"162 ,  Galle  Road , Beruwela .",6.4859894,79.9832676,Cargills
1113,FC KATUGASTOTA,"271 A , Katugastota  Road , Kandy .",7.2728825,80.6040777,Cargills
1133,FC WARAKAPOLA,"97 , Kandy  Road , Warakapola",7.222439,80.191608,Cargills
1303,EX ALEXANDRA PLACE,"75, C.W.W. Kannangara Mw. Colombo 7",6.8910338,79.8484293,Cargills
1124,FC MATALE,"99 A , King  Street , Mathale",7.249969,80.592953,Cargills
1305,EX HAVELOCK ROAD,"323, Havelock Rd. Coombo 6",6.8814334,79.8695965,Cargills
1116,FC AVISSAWELLA,"91 ,  Ratnapura  Road , Avissawella .",6.9529643,80.212406,Cargills
1121,FC GALLE,"24 & 26 ,  Gamini  Mawatha , Galle .",6.0686329,80.2181013,Cargills
1130,FC MOUNT LAVINIA STC,"270 , Galle  Road , Mount Lavinia .S.T.C",6.9098375,79.8501529,Cargills
1138,FC EMBILIPITIYA,"51 , Nonagama   Road , Embilipitiya .",6.2934953,80.884298,Cargills
1120,FC ANURADHAPURA,"248 , Main street , Anuradhapura .",8.3353681,80.4109817,Cargills
1137,FC MUTUWAL,"54 /1 , Centre  Road, Mattakkuliya .",6.9733929,79.8755033,Cargills
1308,EX BAMBALAPITIYA,"762, Galle Rd. Colombo 4",6.894858,79.85481,Cargills
1139,FC BALANGODA,"157 , Old Road , Balangoda .",6.651389,80.697868,Cargills
1145,FC MARADANA,"585 , Maradana  Road , Maradana .",6.926472,79.8640039,Cargills
1125,FC BADULLA,"18 , Dharmadutha Road, Badulla .",6.9879886,81.0595402,Cargills
1146,FC VAVUNIYA,"137, Kandy Road , Vauniya .",6.976602,80.763936,Cargills
1157,FC PILIMATALAWA,"178, Colombo Road , Pilimathalawa.",7.263315,80.5470324,Cargills
1158,FC DAMBULLA,"643, Anuradhapura Road,  Dambulla",7.88005,80.650647,Cargills
1159,FC AKURANA,"281, Matale Road , Akurana.",7.36032,80.60062,Cargills
1150,FC HAMBANTOTA,"Thissa Road,  Hambanthota.",6.326357,81.307648,Cargills
1164,FC HATTON,"171, Dimbulla Road  ,  Hatton.",6.8916333,80.5984591,Cargills
1170,FC KUNDASALE,"Bamunupola Watta,  Kundasale.",7.36667,80.6,Cargills
1169,FC TANGALLE,"No.4,Mahawela Rd,  Tangalle.",6.0219509,80.7959935,Cargills
1187,FC KARAPITIYA,"Namal Traders, Karapitiya.",6.0670789,80.2257615,Cargills
1186,FC EHELIYAGODA,"No.44, Main Street , Eheliyagoda",6.844027,80.270705,Cargills
1188,FC GAMPOLA,"No.8/8, Nawalapitiya Road, Gampola.",7.1593404,80.5650356,Cargills
1316,EX TRINCOMALEE,Linganagar Service station (MPCS),8.5764408,81.2317384,Cargills
1199,FC MAWANELLA,"No.22/C ,Kandy Road   Mawanella.",7.251092,80.450221,Cargills
1162,FC TRINCOMALEE,"No.190, Thirugnanasampanthan Street, Trincomalee.",8.579493,81.22364,Cargills
1278,FC KULIYAPITIYA,"No. 183 , Hettipola Road , Kuliyapitiya",7.4734938,80.0446206,Cargills
1279,FC BANDARAGAMA,"No. 51 , Panadura Road , Bandaragama .",6.7063806,79.9745219,Cargills
1281,FC PANNALA,"No. 33, Kuliyapitiya Road,  Pannala.",7.3285371,80.0243502,Cargills
1288,FC BATTICALOA,"No. 67, St. Anthonys Street,  Batticaloa",7.7356027,81.6941956,Cargills
1286,FC DHARGA TOWN,"No. 321/3,  Main Street,  Dhargatown",7.713777,81.692428,Cargills
1289,FC NAWALAPITIYA,"No. 51, Gampola Road,  Nawalapitiya.",7.0554719,80.5346006,Cargills
1294,FC AMPARA,"Reegal Cinama ,  Nidahas Mawatha , Ampara.",7.2978118,81.6790194,Cargills
1291,FC DICKMANS ROAD,"No. 15, Dickmans Road , Bambalapitiya.",6.9023114,79.85464016,Cargills
1292,FC GRANDPASS,"No. 130/C,  Layards Broadway,  Granpass,  Colombo  14.",6.9442201,79.8645632,Cargills
1297,FC MONERAGALA,"No. 105, Wellawaya Road,  Monaragala",6.897752,81.3413428,Cargills
1298,FC IPALOGAMA,"Ranajayapura, Ipalogama.",8.0719714,80.544784,Cargills
1412,FC PALMADULLA,"No.115, Rathnapura road, Pelmadulla.",6.6234343,80.5431464,Cargills
1419,FC JAWATTA,"No 60, Jawatta Road, Thimbirigasyaya.",6.8938722,79.8670038,Cargills
1411,FC DUPLICATION,"No. 450 E, R A De Mel Mawatha, Colombo 03",7.314605,81.582305,Cargills
1422,FC MANIPPAY,"No. 120 Jaffna Road, Manipay.",9.7211058,80.0235894,Cargills
1432,FC KANNATHTHIDI,"No. 54, Kannathiddy Road, Jaffna",9.6713549,80.0115791,Cargills
1425,FC AKKARAIPATHTHU,"No.143/B 1, Kalmunai road, Akkaraipattru.",6.942199,80.775818,Cargills
1424,FC KALMUNEI,No. 1034/1 Kalmunai 14,7.4187031,81.8124103,Cargills
1433,FC NORRIS CANAL,"No. 25,   Norris Canal Road , Colombo 10",6.921012,79.866131,Cargills
1323,EX TRILLIUM RESIDENCE,"No. 153, Elvitigala Mawatha, Colombo 08",6.821061,79.961815,Cargills
1428,FC WARIYAPOLA,"No. 107, Kurunegala Road, Wariyapola.",7.591524,80.2721784,Cargills
1321,EX KURUWITA,"No 96, Main Road, Kuruwita,",6.7761011,80.3668957,Cargills
1322,EX RUWANWELLA,"No.114, Main Street, Ruwanwella.",7.0458636,80.2537792,Cargills
1319,EX DIGANA,"Methsiripaya, New Town, Rajawella, Digana.",7.2968144,80.7308585,Cargills
1434,FC KADURUWELLA,"No. 896, Batticaloa Road, Kaduruwela",7.93333,81.03333,Cargills
1431,FC KILINOCHCHI,"No. 7-10 Anthoneypillai Building, Karadibokku, Kilinochchi.",9.3770186,80.3354047,Cargills
1327,EX SUWARAPOLA,"No. 428, Moratuwa Rd, Suwarapola, Piliyandala.",6.7978132,79.9114488,Cargills
1326,EX KOTIYAKUBURA,"No. 146, Ruwanwella Road, Kotiyakumbura.",7.1310747,80.2860286,Cargills
1420,FC MANCHANTHODUWAI,"No. 488 New Kalmunai Road, Manchanthoduwaii",7.705535,81.714182,Cargills
1435,FC WELIMADA,"No. 11 Boralanda Road, Welimada",6.865889,80.882922,Cargills
1429,FC BATTICALOA 02,"No.03, Gnanasooriyam Square, Trinco Road, Batticaloa.",7.7102,81.6924,Cargills
1331,EX BENTOTA,"No. 118, Pahurumulla, Galle Road, Bentota",6.4254,79.9948,Cargills
1430,FC GALEWELA,"No. 210, Kalawewa Junction, Galewala",7.7592885,80.5684242,Cargills
1443,FC PUTTALUM,"No. 97B, Kurunagala Road, Puttalam.",8.0301856,79.8286583,Cargills
1439,FC POTHUVIL,"Kaleej Front Buildingâ€, Main Street, Pothuvil.",7.831524,81.552949,Cargills
1446,FC WARD PLACE,"No. 48, Ward Place, Colombo-07",6.9162548,79.8699029,Cargills
1448,FC ERAVUR,"No. 42,44, Main street, Eravur",7.7782,81.6038,Cargills
1341,EX MELSIRIPURA,"Cargills Food City Express, Dambulla Road , Melsiripura",7.639175,80.5066115,Cargills
1342,EX NELLIYADI,"No.163, Jaffna Road, Nelliyady.",9.7992119,80.1997538,Cargills
1453,FC SAMANTHURAI,"No. 32/2, Ampara Road,Viliniyady Junction,Sammanthurai.",6.033033,80.798802,Cargills
1343,EX BELIATTA,"No. 52, Tangalle Road, Beliatta",6.0424456,80.7639441,Cargills
1457,FC THISSAMAHARAMA,"No. 142, Hambantota Road, Thissamaharama",6.2770724,81.2892814,Cargills
1339,EX MIDDENIYA,"Liyanage Building, Weeraketiya Road, Middeniya.",6.2273879,80.7677577,Cargills
1335,EX GALGAMUWA,"No. 37, Anuradhapura Road, Galgamuwa",7.9956851,80.2706908,Cargills
1338,EX MALWANA,"No.52/10/A Main Street, Malwana",6.9534168,80.0090131,Cargills
1455,FC CHUNNAKAM,"No. 91, K. K. S. Road, Chunnakam.",9.7456,80.0271,Cargills
1350,EX MATALE ROSE ST,"No. 1/15, Rose Street,Matale.",7.4708262,80.6242126,Cargills
1324,EX ALAWWA,"No. 151, Giriulla Road,Alawwa.",7.2938087,80.2393427,Cargills
1352,EX SOUTHERN HIGHWAY A,"Cargills Food City Express A ,Canowin Arcade ,Welipenna Rest area.",6.469516,80.077822,Cargills
1353,EX SOUTHERN HIGHWAY B,"Cargills Food City Express B,Canowin Arcade,Welipenna Rest area.",6.995219,80.406192,Cargills
1464,FC PALLEKELE,"No. 396, Digana Road, Pallekele",7.2945,80.7225,Cargills
1155,FC AMBALANTHOTA,"No 129, Jayantha Building, Tangalle Road, Ambalantota.",6.119513,81.016088,Cargills
1444,FC GALLE 02,"No. 10/8, Wakwella Road, Galle",6.0656332,80.1985511,Cargills
1349,EX KARANDENIYA,"No.343, MAHAHENDHANDA, KARANDENIYA",6.2708131,80.0793223,Cargills
1460,FC KATUGASTOTA2,"No. 452, Katugastota road, kandy",7.2728825,80.6040777,Cargills
1355,EX ERIYAGAMA,"No.180, Colombo road, Eiryagama.",7.091106,79.99707,Cargills
1466,FC AMBALANGODA2,"No. 37, New Road, Ambalangoda.",6.2328919,80.0544604,Cargills
1364,EX DEANS ROAD,"No. 153, Deans Road,Colombo 10",6.921109,79.864399,Cargills
1375,EX BUTTALA,"No. 36, Monaragala Road,Buttala.",6.7570967,81.2402218,Cargills
1459,FC AKURESSA,"No.83 Matara Road,Akuressa",6.057924,80.4902331,Cargills
1467,FC GATAMBE,"No.496, Gatambe, Peradeniya.",7.26291,80.5908561,Cargills
1379,EX GINIGATHHENA,"No.120/1 ,Nawalapitiya Road,Ginigathhena",7.0024045,80.4903814,Cargills
1357,EX AMPITIYA,"No. 63 Kandy Road,Ampitiya.",7.2763351,80.6559644,Cargills
1469,FC WELIGAMA,"No. 454,Old Galle Road,Weligama.",5.97501,80.42968,Cargills
1370,EX HIKKADUWA,"No. 162 Galle Road,Hikkaduwa",6.1202915,80.1156869,Cargills
1372,EX DERANIYAGALA,"No. 58, Dehiowita Road,Deraniyagala",6.9363556,80.3343443,Cargills
1366,EX HABARADUWA,"Dassana Building,Galle Road,Habaraduwa.",6.837607,79.867514,Cargills
1381,EX HABARANA,"No. 72,Trincomalee  Road,Habarana.",8.0398876,80.7554997,Cargills
1371,EX WATTEGAMA,"No. 31, Matale Road, Wattegama",6.7989,81.4808,Cargills
1148,FC JAFFNA,"No.420, Hospital Road,Jaffna.",9.666103,80.012594,Cargills
1471,FC COTA ROAD,"No. 260, N.M Perera Mawatha, Cota Road, Colombo 08",6.934744,79.842725,Cargills
1377,EX IBBAGAMUWA,"No. 5, Dambulla Road, Ibbagamuwa.",7.5393521,80.4405948,Cargills
1470,FC WELLAWAYA,"No. 32 Hambanthota Road,Wellawaya.",6.7317804,81.1018359,Cargills
1368,EX GODAKAWELA,"Main Street, Godakawela.",6.5063,80.6434,Cargills
1383,EX MADAWACHCHIYA,"No. 102, Jaffna Road,Medawachchiya.",8.5536287,80.485686,Cargills
1360,EX GELIOYA,"No,35/D, Peradeniya Road,Gelioya.",7.542915,81.374525,Cargills
1386,EX RAMBUKKANA,"No 57, Mawanella Road,Rambukkana.",7.3266342,80.4025509,Cargills
1385,EX DENIYAYA,No. 04 Pallegama Road Deniyaya.,6.345632,80.5491829,Cargills
1475,FC MATHUGAMA,"No. 93, Kalutara Road,Mathugama",6.489959,80.095032,Cargills
1387,EX KATUGODA,"No. 1/389, Matara Road,Katugoda, Galle",6.033562,80.236867,Cargills
1484,FC MARINE CITY,"No 46, Station Road,Dehiwala.",6.8316101,79.8635,Cargills
1481,FC MATALE2,"No. 666,Trincomalee street,Matale",7.4698,80.6217,Cargills
1394,EX GALAGEDARA,"No. 200/C Hospital Junction, Galagedara.",7.3727659,80.5219199,Cargills
1393,EX MULLAITTIVE,"No 197, P.W.D.Road , Mullathiv",6.889804,79.916192,Cargills
1717,EX POOJAPITIYA,"No 6/1/C, Owissa Road, Poojapitiya.",7.3784973,80.586694,Cargills
1726,EX ANAMADUWA,"No 106, Puttalama Road, Anamaduwa.",7.8776367,80.0109366,Cargills
1727,EX MAGGONA,"No. 396/5, Galle Road, Maggona",6.4859894,79.9832676,Cargills
1728,EX ASCON RESIDENCE,"No. 608-1/35, Dr. Danister de Silva Mawatha, Dematagoda.",6.9327474,79.8803715,Cargills
1724,EX NELUWA,"No. 10, Sawijaya Building, Dellawa Road, Galle.",7.70706035,80.65340183,Cargills
1490,FC NARAMMALA,"No. 161, Negombo Road,Narammala.",7.4283006,80.2144459,Cargills
1718,EX AHANGAMA,"No.55/A,Galle Road, Piyadigama, Ahangama.",6.8388379,79.8669957,Cargills
1735,EX MALKADUWAWA,"FOOD CITY  EXPRESS â€“MALKADUWAWA,Molawatta, Malkaduwawa,Kurunegala.",7.244102,80.59864,Cargills
1739,EX MAKULUDUWA,"No 16 B,Makuluduwa,Piliyandala.",6.8153272,79.9349491,Cargills
1736,EX KATARAGAMA,"No 53/1/1/2, Sella Road, Kataragama.",6.968444,80.770424,Cargills
1741,EX MANNAR,"No Road 01 ,Pallimulei Mannar",8.9772444,79.9137786,Cargills
1738,EX KALMUNAI,"Cargills Food City, Saindhamaruthu, Kalmunai",7.3983722,81.8327841,Cargills
1743,EX KEKIRAWA,"No 15, Malawa Village,Central Road, Kekirawa",8.0405114,80.5941622,Cargills
1745,EX RAHULA JUNCTION,"No. 39,Perera MW,Buthgamuwa Rd,Rajagiriya",6.9093966,79.8985781,Cargills
1746,EX MALIGAWATTE2,"No.227, Saddharma Mawatha, Maligawatte, Colombo 10",6.938669,79.874888,Cargills
1749,EX ALADENIYA,"No. 418/A, Kurunegala Road,Aladeniya,Werallagama â€“ Kandy.",7.3272275,80.5932034,Cargills
1550,FC MATARA 02,"No. 28,37 ,Araliya Mawatha ,Kotuwegoda ,Matara.",6.0240512,80.7976573,Cargills
1559,FC ANURADHAPURA 02,"No.46 Maithreepala Senanayeke Mawathe,Anuradapura",6.9413418,80.1894709,Cargills
1498,FC KURUNEGALA 03,"Cargills food city No.200/Colombo road,Kurunegala - 03",6.714712,80.063782,Cargills
1571,FC DAMBULLA 02,"No.166, Kurunegala Rd, Dambulla",7.86,80.65167,Cargills
1567,FC KEGALLE 02,"No: 75/10, Hitinawatta Rd, Nidahas Mw, Kegalle",7.2532006,80.3454132,Cargills
1584,FC MAHIYANGANAYA,"NO.113,TILE FACTORY RD,MAHIYANGANAYA",7.31667,80.98333,Cargills
1756,EX BINDUNUWEWA,"Cargill Food City - Express, HILL SIDE, BINDUNUWEWA",6.911341,79.865033,Cargills
1579,FC MIRISSA,"Mahawaththa,  Galle Road, Mirissa.",5.9493634,80.4558128,Cargills
1760,EX THALDUUWA,"No. 499/A, Thalduwa, Avissawella",6.9522325,80.2125947,Cargills
1589,FC ALUTHGAMA 02,"No:107 or 107/3, Galle Rd, Kaluwamodara, Aluthgama",6.43333,79.99972,Cargills
1592,FC PILIMATHALAWA 02,"No. 231 ,Urapola, Pilimathalawa.",7.2682337,80.5412865,Cargills
1759,EX MARADANA 02,"205 1/1 ,Maradana Road ,Colombo 10.",6.99903,79.877956,Cargills
1763,EX URAGASMANHANDIYA,"No. 5 , L.S.Mawatha ,Uragasmanhandiya.",6.981862,80.655775,Cargills
1762,EX NAWAGAMUWA,"No. 847 ,Avissawella Road, Nawagamuwa.",6.9051,80.0131,Cargills
1597,FC RAMBUKKANA,"No:35,DM Dissanayake Kumarathunga Mawatha, Rambukkana",7.3239273,80.3957479,Cargills
1768,EX ELPITIYA,"No. 22 A , Pituwala Road, Elpitiya",6.233142,80.19275,Cargills
1902,FC COLOMBO CITY CENTER,"No 137, Sir James Pieris Mawatha, Colombo 02",6.934744,79.842725,Cargills
1766,EX PINNADUWA FAIRWAY,"South Tower , Fairway Residencies , Pinnaduwa ,Galle.",7.596745,81.724271,Cargills
1546,FC RATNAPURA 03,"No.496 Colombo Rd, Weralupa, Rathnapura",6.68610125,80.40792433,Cargills
1594,FC JAYA ROAD,"No.1594, Food City Jaya Road, Colombo 04",6.934744,79.842725,Cargills
1770,EX PALAPATHWELA,"R.R.B.BANK BULDING, PALAPATHWALA",8.927492,80.512242,Cargills
1548,FC BIYAGAMA,"No.452, New Kandy Rd, Biyagama",6.9526193,79.9940302,Cargills
1545,FC GLORIOUS RESIDENCE,"No.167 Bandaranayeka Rd,Colombo 12",6.934744,79.842725,Cargills
1761,EX NARAHENPITA,"No.522,Elvitigala Mawatha, Narahenpita",6.8928,79.8757,Cargills
1600,EX GALAHA ROAD,"No. 24 ,Galaha Road ,Peradeniya.",7.2621872,80.599196,Cargills
1773,EX UNAWATUNA,"No.134 Matara Rd, Unawatuna",6.0212,80.2503,Cargills
1608,FC KOLLUPITIYA 02,"No. 271/1 ,Galle Road ,Colpetty",6.786499,79.884319,Cargills
1774,EX DEHIWALA,"No.21, Hill Street, Dehiwala.",6.851319,79.86656,Cargills
1616,FC POLONNARUWA,"No.13, f1, Hospital Junction, Polonnaruwa",6.8397967,79.9940385,Cargills
1776,EX MALIGAWATTE 03,"No. 67, Pradeepa Rd, Maligawatta , Colombo 10",6.9349043,79.8695578,Cargills
1772,EX LABUDUWA,"No. 52/A Thotagoda, Akmeemana",6.3567576,79.7803792,Cargills
1777,EX RIKILLAGASKADA,"No.54, Dimbulkumbura Rd, Rikillagaskada",7.1515836,80.8098041,Cargills
1778,EX DEVINUWARA,"No.144G/144H Tangalle Rd, Devinuwara",5.961752,80.6868,Cargills
1497,FC DEMATAGODA 02,"02 Dematagoda Road, Maligawatta, Colombo 00900, Sri Lanka",6.9307223,79.8769341,Cargills
1549,FC BOMIRIYA,"Bomiriya, Western Province, Sri Lanka",6.9317092,80.007264,Cargills
1555,FC BLOEMENDHAL,"Bloemendhal, Colombo, Western Province, Sri Lanka",6.9494004,79.8676546,Cargills
1607,FC GAMPOLA 02,"02 Gampola Road, 20400, Sri Lanka",7.26224,80.593023,Cargills
1614,FC KOLONNAWA 02,"02 Kolonnawa Road, Kolonnawa 10600, Sri Lanka",6.932583,79.891126,Cargills
1619,FC KULIYAPITIYA 02,"02 Pannala - Kuliyapitiya Road, Kuliyapitiya 60200, Sri Lanka",7.4695373,80.0263868,Cargills
1650,FC W. A. SILVA MAWATHA,"W. A. Silva Mawatha, Wellawatte, Colombo 00600, Sri Lanka",6.8763511,79.864268,Cargills
1651,FC KARAPITIYA 02,"02 Karapitiya Road, Pilana 80120, Sri Lanka",6.04778,80.271965,Cargills
1655,FC WALGAMA,"Walgama, Southern Province, Sri Lanka",5.9424672,80.5149276,Cargills
1659,FC MATALE 03,"03 Kandenuwara - Matale Road, Bandarapola 21300, Sri Lanka",7.4507599,80.6635308,Cargills
1661,FC GREEN PATH,"Green Path, 10250, Sri Lanka",6.865114,79.884346,Cargills
1663,FC KIRIBATHKUMBURA,"Kiribathkumbura, Eriyagama, Central Province, Sri Lanka",7.2677289,80.5762641,Cargills
1664,FC THANIPOLGAHA JUNCTION,"Thanipolgaha Junction (Galle), Southern Province, Sri Lanka",6.0456474,80.2251601,Cargills
1667,FC AVISSAWELLA 02,"02 Avissawella-Ratnapura Road, Avissawella 10700, Sri Lanka",6.953939,80.2110522,Cargills
1669,FC BADULLA 02,"No.02 New Bus stop ,Badulla, Badulla 90000, Sri Lanka",6.988164,81.057578,Cargills
1670,FC MATHUGAMA 02,"02 Mathugama Road, Aluthgama 12080, Sri Lanka",6.4297028,79.9999083,Cargills
1671,FC MAWATHAGAMA,"Mawathagama, North Western Province, Sri Lanka",7.4329884,80.4464094,Cargills
1672,FC SLAVE ISLAND,"Slave Island (Colombo), Western Province, Sri Lanka",6.9246573,79.8502734,Cargills
1676,FC BAUDDHALOKA MAWATHA,"Bauddhaloka Mawatha, Bambalapitiya, Colombo 00400, Sri Lanka",6.8959971,79.8567035,Cargills
1678,FC KOTHALAWALA,"Kothalawala, Western Province, Sri Lanka",6.9226914,79.9797067,Cargills
1680,FC KURUNEGALA 04,"04 Kurunegala Road, 61307, Sri Lanka",8.031019,79.828838,Cargills
1697,FC TANGALLE 02,"Tangalle, Kotuwegoda, Tangalle 82300, Sri Lanka",6.03017455,80.79284668,Cargills
1779,EX UDAWALAWA,"Udawalawa Fisheries Bungalow, Pubudu Mawatha, Udawalawe 70190, Sri Lanka",6.4097927,80.8264548,Cargills
1780,EX MORAWAKA,"Morawaka, Southern Province, Sri Lanka",6.2612748,80.4917496,Cargills
1781,EX AHUNGALLA,"Ahungalla, Southern Province, Sri Lanka",6.313789,80.0351217,Cargills
1782,EX KANTHALE,Cargills Food City Express - Kanthale,8.3658759,81.0005239,Cargills
1783,EX JAYANTHIPURA,"Jayanthipura (Polonnaruwa), North Central Province, Sri Lanka",7.9851962,80.9637754,Cargills
1784,EX DODANGODA,"Dodangoda, Western Province, Sri Lanka",6.5547698,80.0242451,Cargills
1785,EX GALLE FORT,"Galle Fort Hotel, Church Street, Talbot Town, Galle 80000, Sri Lanka",6.02662175,80.21768858,Cargills
1787,EX BADDEGAMA,"Baddegama, Southern Province, Sri Lanka",6.1724812,80.1779163,Cargills
1788,EX BADULLA,"Badulla, Uva Province, Sri Lanka",6.9900353,81.0570315,Cargills
1790,EX HALDUMMULLA,"Haldummulla, Uva Province, Sri Lanka",6.7602163,80.8808852,Cargills
1791,EX IBBAGAMUWA 02,"02 Ibbagamuwa-Kumbukgete-Madagalla Road, Kiribamuna 60506, Sri Lanka",7.6201012,80.4339444,Cargills
1795,EX NOROCHCHOLAI,"Norochcholai, North Western Province, Sri Lanka",8.014741,79.7357052,Cargills
1796,EX POTHUPITIYA,"Pothupitiya, Sabaragamuwa Province, Sri Lanka",6.429601,80.5114066,Cargills
1797,EX PITIGALA,"Pitigala, Southern Province, Sri Lanka",6.3435755,80.2225563,Cargills
1799,EX AMBANPOLA,"Ambanpola, North Western Province, Sri Lanka",7.9196719,80.239316,Cargills
1800,EX HAPUGALA,"Hapugala, Southern Province, Sri Lanka",6.0757917,80.1975697,Cargills
1801,EX PALLEBEDDA,"Pallebedda, Sabaragamuwa Province, Sri Lanka",6.4818813,80.7076416,Cargills
1802,EX BULATHKOHUPITIYA,"Bulathkohupitiya, Sabaragamuwa Province, Sri Lanka",7.1049513,80.335745,Cargills
1803,EX TANGALLE,"Tangalle, Southern Province, Sri Lanka",6.0219509,80.7959935,Cargills
1806,EX THIHAGODA,"Thihagoda, Southern Province, Sri Lanka",6.0127562,80.565877,Cargills
1807,EX WALASMULLA,"Walasmulla, Southern Province, Sri Lanka",6.1558503,80.6979578,Cargills
1809,EX ARACHCHIKANDA,"Arachchikanda, Galle, Sri Lanka",6.1453,80.1285,Cargills
1810,EX ALAWWA 02,"02 Alawwa-Giriulla Road, Alawwa 60288, Sri Lanka",7.3116348,80.2002468,Cargills
1825,EX YATIYANTOTA,"Yatiyantota, Sabaragamuwa Province, Sri Lanka",7.0289554,80.2950276,Cargills
1826,EX YMCA,"YMCA, Kotugodella Veediya, Mahaiyawa, Kandy 20000, Sri Lanka",7.29633835,80.63695459,Cargills
1828,EX HIRIPITIYA,"Hiripitiya, North Western Province, Sri Lanka",7.656862,80.3692493,Cargills
1834,EX VAVUNIYA,"Vavuniya, Northern Province, Sri Lanka",8.7593517,80.5000778,Cargills
1836,EX RAIGAMA,"Raigama, Western Province, Sri Lanka",6.7186391,80.0108447,Cargills
1840,EX WATAREKA,"Watareka, North Western Province, Sri Lanka",7.4044784,80.4390138,Cargills
1841,EX URUBOKKA,"Urubokka, Southern Province, Sri Lanka",6.3075623,80.6313477,Cargills
1842,EX KEKANADURA,"Kekanadura Cemetry, Thalpawila, Matara District, Sri Lanka",5.9653375,80.60438595,Cargills
1843,EX THELDENIYA,"Police Station Theldeniya, Kandy - Mahiyanganaya- Padiyathalawa Road, Teldeniya 20900, Sri Lanka",7.3103509,80.7637281,Cargills
1844,EX YANTHAMPALAWA,"Yanthampalawa, North Western Province, Sri Lanka",7.5004959,80.3485799,Cargills
1845,EX PIDURUWELLA,"Piduruwella, Kegalle, Sri Lanka",7.0643,80.348,Cargills
1847,EX HIKKADUWA 02,"02 Old Hikkaduwa Road, Baddegama 80200, Sri Lanka",6.1725221,80.1736055,Cargills
1850,EX NINTAVUR,"Nintavur (Karaitivu), Eastern Province, Sri Lanka",7.3542053,81.8461203,Cargills
1852,EX RANNA,"Ranna, Southern Province, Sri Lanka",6.0970103,80.8751364,Cargills
1853,EX WEERAKETIYA,"Weeraketiya-Middeniya Road, Mandaduwa 82240, Sri Lanka",6.1542922,80.7687386,Cargills
1854,EX KANNATHTHOTA,"Kannaththota, Sabaragamuwa Province, Sri Lanka",7.0828501,80.2721517,Cargills
1858,EX THAMBUTHTHEGAMA,"NCP/A/TB/TB/Thambuththegama Primary School, Anuradhapura - Padeniya Road, Ikiriwewa 50240, Sri Lanka",8.1414941,80.2889295,Cargills
1859,EX WIJERAMA MAWATHA,"Wijerama Mawatha, Cinnamon Gardens, Colombo 00700, Sri Lanka",6.9070207,79.872907,Cargills
1862,EX PINNADUWA 02,"Akmeemana, Southern Province, Sri Lanka",6.0681239,80.2642681,Cargills
1863,EX BATAPOLA,"Ambalangoda -Batapola Road, Ambalangoda 80300, Sri Lanka",6.2389569,80.0551829,Cargills
1864,EX ARAYAMPATHY,"Arayampathy, Eastern Province, Sri Lanka",7.65761635,81.73927172,Cargills
1866,EX MUTUR,"Mutur, Eastern Province, Sri Lanka",8.4579687,81.2667036,Cargills
1867,EX KOPAY,"Kopay, Northern Province, Sri Lanka",9.7151701,80.0668497,Cargills
1872,EX OVAL VIEW RESIDENCE,"Oval View Residencies, 120 Leslie Ranagala Mawatha, Borella, Colombo 00800, Sri Lanka",6.917823,79.885722,Cargills
1887,EX POTHUHERA,"Pothuhera, North Western Province, Sri Lanka",7.4198002,80.3282461,Cargills
1888,EX ISIPATHANA MAWATHA,"Isipathana Mawatha, Havelock Town, Colombo 00006, Sri Lanka",6.8881182,79.864413,Cargills
1892,EX MABULGODA,"Mabulgoda, Colombo, Sri Lanka",6.8266,79.975,Cargills
1896,EX ORION CITY,"Orion City IT Park, Orion City Entrance, Dematagoda, Colombo 00009, Sri Lanka",6.94052245,79.87887812,Cargills
SCA2,Athurugiriya 2,"No. 175/12, Malambe Road, Athurugiriya",6.8772464,79.9899292,Keels
SCAR,Arangala,"No. 730, Malabe Road, Arangala, Athurugiriya",6.887206,79.9675255,Keels
SCBL,Boralasgomuwa,"No. 105/1, Kesbewa Road, Katuwala, Boralasgomuwa",6.83314,79.907294,Keels
SCCC,Crescat,"No. 89, Crescat Boulevard, Galle Road, Colombo 03",6.917003,79.848217,Keels
SCCM,Thalawathugoda,"No. 531, Capital Mall, Madiwela Road, Thalawathugoda",6.874709,79.934338,Keels
SCDE,Dehiwala,"No. 268, Sir D.B. Jayathilake Mawatha, (Hill Street), Dehiwala",6.8512785,79.8659769,Keels
SCED,Embuldeniya,"No. 303, Old Kottawa Road, Embuldeniya",6.8692513,79.9080518,Keels
SCGS,Gamsabha,"No.315,High level road,Gangodawila,Nugegoda",6.8682939,79.8920467,Keels
SCHG,Homagama,"No. 375/10A, Highlevel Road, Makumbura, Pannipitiya",6.8392272,79.9726949,Keels
SCHR,Havelock Road,"No. 228, Havelock Road, Colombo 05",6.8802141,79.869512,Keels
SCKE,Kotahena,"No. 01, Bonjeang Road, Colombo 13",6.726436,80.033863,Keels
SCKH,Kohuwala,"No. 135, Dutugemunu Mawatha, Kohuwala",6.8684,79.8816,Keels
SCKL,Kalubowila,"No. 53, Hospital Road , Kalubowila, Dehiwala",6.8637484,79.8685126,Keels
SCKO,Kotte,"No. 581, Kotte Road , Pitakotte",6.8900532,79.9032684,Keels
SCM2,Moratuwa Mall,"No. 340, K- Zone, Lakshapathiya, Moratuwa",6.7746821,79.8826095,Keels
SCM3,Maharagama 2,"No. 184, Dehiwala Road, Maharagama",6.8469837,79.9265554,Keels
SCMD,Marine Drive,"No. 35, Upathissa Road, Bambalapitiya, Colombo 04",6.8893104,79.8543553,Keels
SCMG,Maharagama,"No. 226, High Level Road, Maharagama",6.8469973,79.9268651,Keels
SCML,Mount Lavinia,"No. 388/A, Galle Road, Mount Lavinia",6.83389,79.86444,Keels
SCNW,Nawala,"No. 459, Nawala Road, Rajagiriya",6.9174,79.8896,Keels
SCPK,Pitakotte,"No. 216 A, Thalawathugoda Road, Pitakotte",6.87692,79.9272328,Keels
SCPN,Pannipitiya,"No. 361, Highlevel Road, Pannipitiya",6.8462,79.9448,Keels
SCPT,Pittugala ,"No. 296, Kaduwela Road, Pittugala, Malambe ",6.909663,79.9711355,Keels
SCPY,Kohuwala 2,"No. 71, Sunethradevi Road, Kohuwala",6.8670544,79.8847353,Keels
SCRJ,Rajagiriya 2,"No. 522, Kotte Road, Rajagiriya",6.9174,79.8896,Keels
SCRM,Rathmalana,"No. 413, Galle Road, Rathmalana",6.837607,79.867514,Keels
SCRT,Raththanapitiya,"No. 235, Horana Road, Raththanapitya, Boralasgamuwa",6.669219,79.991486,Keels
SCSJ,Rajagiriya,"No. 475, Sri Jayawardenapura Road, Rajagiriya",6.9174,79.8896,Keels
SCTB,Thimbirigasyaya,"No. 407, Thimbirigasyaya Road, Colombo 05",6.8959423,79.8732777,Keels
SCTH,Thalahena,"No. 427, Kaduwela Road, Thalahena",6.9144935,79.9507612,Keels
SCUP,Union Place,"No. 199, Union Place, Colombo 2",6.919438,79.859861,Keels
SCWJ,Wijerama,"No. 4 & 6, Soratha Mawatha, Nugegoda",6.857649,79.908165,Keels
SFGL,Galle,"No. 46, Colombo Road, Kaluwella, Galle",6.0328687,80.2147822,Keels
SGKB,Kiribathgoda,"No. 94, Makola Road, Kiribathgoda",6.976833,79.929,Keels
SGKY,Kelaniya,"No: 690, Biyagama Road, Pilapitiya, Kelaniya",6.9518701,79.9173819,Keels
SGMH,Welisara,"No: 812, Negombo Road, Mahabage",7.02,79.8913,Keels
SGWA,Wattala 2,"No. 384, Negombo Road, Wattala",6.9779,79.8898,Keels
SIP2,Panadura 2,"No. 161, Galle Road, Walana, Panadura",6.7198096,79.9075006,Keels
SKK2,Kandy 2,"No. 489, William Gopallawa Mawatha, Kandy",7.2923803,80.6339666,Keels
SKKA,Kandy,"City Centre Compex, Level 1, L1 -14, Kandy (Pvt) Ltd, Kandy",7.2922234,80.6370835,Keels
SMMR,Matara,"No. 227, Anagarika Dharmapala Mawatha, Nupe, Matara",5.94899,80.534952,Keels
SCK3,Kottawa 3,"No. 139, Athurugiriya Road, Kottawa",6.8418687,79.9643923,Keels
SCTG,Thalawathugoda 2,"No. 158, Pannipitiya Road, Thalawathugoda",6.8795875,79.9346861,Keels
SGKR,Kerawalapitiya,"No. 315, Handala Road, Wattala",6.9779,79.8898,Keels
SRRP,Rathnapura,"No. 09, Panadura Road, Moragahayata, Rathnapura",6.68278,80.39917,Keels
SGEM,Enderamulla,"No. 75A, Enderamulla, Wattala",7.294566,80.560479,Keels
SGKG,Kiribathgoda 2,"No. 197, Kandy Road, Kiribathgoda",6.9689794,79.911636,Keels
SFGA,Galle 2,"No. 465,Wackwella Road, Kalegana, Galle",7.249624,80.453606,Keels
SIKS,Kaluthara,"No. 735, Galle Road, Wettumakada, Kauthara South, Kaluthara",6.637392,79.96395,Keels
SCET,Edmonton,"No. 25, Edmonton Road, Colombo - 5",6.8812862,79.8756536,Keels
SGTY,Tyre Junction,"No. 498, Kandy Road, Dalugama, Kelaniya",6.9745876,79.918335,Keels
SCMW,Moratuwa 3,"No. 16, St Peters Road, Moratuwa",6.7746821,79.8826095,Keels
SNRU,Kurunegala 02,"No. 41, Bauddhaloka Mawatha, Kurunegala",7.4819039,80.3606205,Keels
SCKZ,Kesbewa,"No. 220/1, Bandaragama Road, Kasbewa",6.736522,79.973667,Keels
SIBE,Beruwala,"No. 167, Galle road, Beruwala",6.427337,79.9982066,Keels
SGRA,Ragama,"No. 968, Mahabage Road, Ragama",7.0292,79.917,Keels
SCGT,Gothatuwa,"No. 215, IDH Road, Gohtatuwa",6.930591,79.862641,Keels
SMMS,Matara 2,"No 361, Welewatta Matara.",5.9645809,80.703268,Keels
SCAD,Attidiya 02,"208, Aththidiya Road, Bellanthotha",6.8399552,79.8822694,Keels
SIP4,Panadura 03,"267, Horana Road, Wekada, Panadura",6.7132,79.9026,Keels
SYMT,Matale,"11, Nagolla Road, Mathale",8.330443,80.414068,Keels
SGGP,Gampaha 2,"125, Colombo Road, Gampaha",7.0028467,79.9539103,Keels
SCGO,Godagama,"551, Highlevel Road, Homagama",6.8412384,80.0034457,Keels
SGKC,Kochchikade,"21, Negembo Road, Kochchikade",7.2657,79.8603,Keels
SINL,Nalluruwa,"735, Galle Road, Nalluruwa, Panadura.",6.7132,79.9026,Keels
SIAL,Aluthgama,"Ruwangiriâ€, Kaluwamodara, Galle Road, Aluthgama.",6.4394,79.9895,Keels
SCWP,Wellampitiya,"230, Avissawella Road, Wellampitiya.",6.9372438,79.8962142,Keels
SCPI,Piliyandala,"242, Colombo Road, Miriswatta, Piliyandala",6.0157315,80.7189695,Keels
SLKV,Kegall,"No. 461, Kandy road, Kegalle.",7.253298,80.346275,Keels
SGMI,Minuwangoda,"No.28, Veyangoda Road, Minuwangoda.",7.1696959,79.9458028,Keels
SREP,Embilipitiya,"No 248, Pallegama Embilipitiya.",6.889804,79.916192,Keels
SGJA,Ja Ella,"Â NO: 134 Minuwangoda Road, Kanuwana, Ja-Ela",7.0793775,79.8907632,Keels
SPWN,Wennappuwa,"No: 28A, Chilaw Road, Wennappuwa",7.3893081,79.8319885,Keels
SCMU,Mulleriyawa -Angoda,"No: 42D, Hospital Road, Angoda.",6.9869051,79.9291197,Keels
SNRN,Kurunegala 03,"192, Puttalam Road, Kurunegala",7.6195581,80.246429,Keels
SIGN,Gorakana,"No. 290, Old Galle Road, Gorakana, Panadura",6.7665598,79.8942365,Keels
SIBM,Bandaragama,"No. 50, Panadura Road, Bandaragama",6.7063806,79.9745219,Keels
SGN2,Negombo 2,"No. 339, Kimbulapitiya Road, Negombo",7.2051806,79.8532912,Keels
SKGZ,Gampola,"27/2, Nawalapitiya Road, Gampola",7.1593404,80.5650356,Keels
SPCH,Chilaw,"No. 110, Puttlam Road, Chilaw",7.57583,79.79528,Keels
SCKJ,Kesbewa 2,"1059, Horana Road, Kesbewa Â ",6.7928137,79.9461733,Keels
SGRD,Delpe,"No. 324, Kadawatha Road, Delpe Junction, Mahara",7.1602,80.5724,Keels
SGND,Dalupotha,"No 555, Chilaw Road, Negombo",7.2194812,79.8453009,Keels
SGEL,Eldeniya,"No. 434, Kandy Road, Ranmuthugala, Kadawatha",7.0047,79.96,Keels
SCBI,Biyagama,"No. 306, New Kandy Road, Biyagama",6.9526193,79.9940302,Keels
SREG,Ehaliyagoda,"No. 34, Rathnapura Road, Eheliyagoda",6.844854,80.273006,Keels
SPMV,Maravila,"No. 40, Horagalla South, Colombo Road, Marawila. ",7.3893081,79.8319885,Keels
SKKM,Katugasthota,"1416, Jaffna Road, Katugasthota",7.3443912,80.6178312,Keels
SIHZ,Horana,"No. 233, Rathnapura Road, Horana",6.7159,80.0626,Keels
SPPU,Puttalam,"# 89, Kurunegala Road, Puttalama.",8.031019,79.828838,Keels
SGMP,Miriswatta,"No. 39, Gampaha Road, Miriswattha",7.0733989,80.01588013,Keels
SCAK,Akuregoda,"No. 244, Pothuarawa Road, Akuregoda",6.8945264,79.9522318,Keels
SCDR,Darley Road,"No. 460, T.B. Jaya Mawatha, Colombo 10.",6.922769,79.862045,Keels
SGTI,Thihariya,"No. 120, Kandy Road, Thihariya",7.1198819,80.0619791,Keels
SCSL,Shangri-La Mall,"One Galle Face Mall, Colombo.",6.92762985,79.84493183,Keels
SHTA,Tangalle,"No. 281, Matara Road,Tangalle",6.024,80.7911,Keels
SCPA,Piliyandala 2,"118/1 A, Maharagama road, Mavittara,Piliyandala",6.7999,79.9249,Keels
SCMY,Mattakuliya,"Nos. 854 Aluthmawatha Road, Mattakkuliya.",6.956636,79.8614756,Keels
SGNK,Negombo Kurana,"No. 800,2nd Kurana, Colombo Road, Negombo",7.2083,79.8358,Keels
SGJW,JA Ela 3,"236, Negombo Road,Weligampitiya, Ja Ela",7.0793775,79.8907632,Keels
SGSE,Seeduwa,"No. 253, Negombo Road, Bandarawaththa, Seeduwa",7.1311776,79.8762627,Keels
SCTL,Thalawathugoda 3,"572/5, Thalawathugoda Road,Madiwela",6.8760624,79.9289737,Keels
SLMN,Mawanella,"185, New Kandy Road, Mawanella",7.2523113,80.4468038,Keels
SKKI,Kandy 3,"No. 927, Peradeniya Road, Kandy",7.2444242,80.5797695,Keels
SGNO,Negombo Telwatta,"250, Colombo Road, Negombo",7.2166704,79.8460345,Keels
SCAV,Avissawella,"No.57, Kiriwandala, Avissawella",6.9413365,80.1920458,Keels
SGSM,Sinharamulla,"356, Biyagama Road, Gonawela,Kelaniya",6.9553,79.922,Keels
SFK4,Karapitiya,"No.54, Hirimbura Cross Road, Karapitiya",7.948676,81.497107,Keels
SFAB,Ambalangoda,"No. 435, Galle Road, Ambalangoda",6.2355,80.0538,Keels
SCHD,Hokandara,"188, Hokandara Road, Thalawathugoda",6.8799359,79.9465858,Keels
SIMZ,Mathugama,"185, Kaluthara Road, Mathugama",6.489959,80.095032,Keels
SCVJ,Vidyala Junction,"No. 4, Hokandara Road, Kalalgoda, Pannipitiya",6.8683248,79.9417996,Keels
SGMQ,Mawaramandiya,"475, Udupila Road, Mawaramandiya",6.9847695,79.9715641,Keels
SCBT,Battaramulla,"1024 and 1027, Pannipitiya Road, Battharamulla",6.8835532,79.9331755,Keels
SIWD,Wadduwa,"No. 520, Galle road, Wadduwa",6.6944617,79.9146098,Keels
SGK5,Kirillawala,"No. 89, Kandy Road, Pahala Imbulgoda, Imbulgoda",7.0376,79.9913,Keels
SMMC,Matara 3,"No. 66, Kumarathunga Mawatha, Matara",5.948977,80.542773,Keels
SCK6,katubedda,"No. 78, Bandaranayake Mawatha, Katubedda",6.7974474,79.8885193,Keels
SCMF,Maharagama 3,"No. 59, Piliyandala road, Maharagama",6.848,79.9265,Keels
SIWK,Kaluthara 2,"No. 34, Galle Road, Maha Waskaduwa ",6.6459201,79.9370807,Keels
SCDP,Duplication Road,"No. 5, Lauries Place, Colombo 4 ",6.934744,79.842725,Keels
SAAP,Anuradhapura,"No. 514, Maithripala Senanayake Mawatha, Anuradhapura",8.3231774,80.403114,Keels
SCKX,Kaduwela,"131/6, Hewagama, Kaduwela",6.9210961,79.9748073,Keels
SCPO,Pitakotte 2,"308, Kotte Road, Pitakotte",6.8900532,79.9032684,Keels
SRRR,Rathnapura 2,"No. 42, Bandaranayake Mawatha, Rathnapura",6.6816822,80.3973131,Keels
SGYK,Yakkala,"65/5. 1st Lane, Kandy Road, Yakkala.",7.0869,80.0271,Keels
SCK7,Kotahena 2,"No. 141, K Cyril C Perera Mawatha, Cololmbo 13.",6.953332,79.867075,Keels
SCNG,Nugegoda 2,"No. 14, Nawala Road, Nugegoda",6.8787282,79.8908299,Keels
SCTU,Thurstan,"No. 32, Kumarathunga Munidasa Mawatha, Cololmbo 3.",7.25677,80.350931,Keels
SGDL,Diuwalapitiya,"Mahagedarawaththa, Minuwangoda Road,  Divulapitiya",7.256563,80.00489,Keels
SGGE,Ganemulla,"No 268, Kadawatha Road, Ganemulla",7.0603137,79.9626773,Keels
SCCR,Kotta Road,"No 103, Dr. N.M. Perera Mawatha, Colombo 08",6.934744,79.842725,Keels
1068,FC NEGOMBO,"355 , Main  Street  , Negombo .",7.2108702,79.8400712,Cargills
1087,FC JAELA,"49 , Negombo Road , Ja-Ela",7.078096,79.890508,Cargills
1102,FC CHILAW,"1 , Jetty  Street , Chilaw .",7.5790038,79.7930198,Cargills
1112,FC KADAWATHA,"831 , Kandy  Road , Kadawatha .",7.0031894,79.9561294,Cargills
1136,FC PELIYAGODA,"304 , Negombo  Road , Peliyagoda",6.9650494,79.8819826,Cargills
1131,FC WENNAPPUWA,"25/2  ,  Chilaw  Road , Wennapuwa .",6.131082,80.104173,Cargills
1144,FC SEEDUWA,"673 , Negambo Road, Liyanagemulla  Seeduwa .",7.1305,79.8871,Cargills
1142,FC KANDANA,"39 A  Negambo Road , Kandana .",7.048,79.8937,Cargills
1317,EX KATUNAYAKE SLAF,SLAF Base Katunayaka,7.1852222,79.8768381,Cargills
1192,FC NITTAMBUWA,"No.89, Kandy  Road, Nittambuwa.",7.1372076,80.0923231,Cargills
1194,EX BIA KATUNAYAKE,"CFC.Depatur concord, B.I.A. Katunayake",6.855323,79.865709,Cargills
1196,FC KADAWATHA 2,"No.317, Kanday Road, Kadawatha.",7.0009,79.95012,Cargills
1198,FC MIRIGAMA,"No.93, Giriulla  Road ,   Merigama",7.247844,80.129836,Cargills
1283,FC WELIWERIYA,"No. 28, New Kandy Road,  Weliweriya",7.0324549,80.0281104,Cargills
1282,FC DELGODA,"No. 348, New Kandy Road,  Delgoda .",6.9799234,80.0089071,Cargills
1296,FC NEGOMBO 2,"No 266, Colombo Road,   Negambo.",6.101683,80.126999,Cargills
1403,FC WELISARA,"No. 768, Negombo road,   Welisara , Ragama.",7.0263493,79.9236484,Cargills
1417,FC JAELA 02,"No. 417, Negombo Road, Jaela",7.0744,79.8919,Cargills
1414,FC YAKKALA,"No. 99, Yakkala Park, Kandy Road, Yakkala.",7.0859203,80.0335639,Cargills
1415,FC MAKOLA,"No. 99 Makola South, Makola",6.9749497,79.9499272,Cargills
1421,FC THIHARIYA,"No.122/1 Parakumbamahal, Thihariya, Kalagedihena",7.1264859,80.0705602,Cargills
1423,FC BANDARAWATTE,"No. 160/9A, New Kandy Road, Bandarawatte, Biyagama.",6.965946,79.976701,Cargills
1427,FC ELAKANDA,"No. 132 Canal Road, Elakanda",7.025844,79.865896,Cargills
1334,EX PASYALA,"No. 174 2/4, Kandy Road, Pasyala",7.155695,80.1112398,Cargills
1337,EX KANDANA,"No. 76 Station Road,Kandana",7.053165,79.9193674,Cargills
1351,EX SEEDUWA PALLIYAWATTA,"No. 344, Kotugoda Road,Palliya Junction,Raddolugama",7.130979,79.886749,Cargills
1365,EX KATUNERIYA,"St. Anthonies Building, Chilaw Road, Katuneriya",7.3893081,79.8319885,Cargills
1472,FC PETHIYAGODA,"No. 16  Biyagama Road,Pethiyagoda,Kelaniya",6.9553,79.922,Cargills
1358,EX BOPITIYA,"No. 1, Pamunugama Road,Bopitiya",7.07,79.855,Cargills
1474,FC GANEMULLA,"No. 367, Kadawatha Road, Ganemulla",7.0603137,79.9626773,Cargills
1376,EX VEYANGODA,"No. 14, Good Shed Road, Veyangoda.",7.1534492,80.0602466,Cargills
1374,EX AMBEPUSSA,"No. 365, Colombo Road,Ambepussa.",7.2413572,80.2111758,Cargills
1384,EX DANDUGAMA,"No. 366, Colombo Road,Dandugama,Ja-Ela.",7.0744,79.8919,Cargills
1480,FC CHILLAW2,"No. 98, Colombo Road,Chillaw.",7.256149,79.855753,Cargills
1389,EX GREEN ROAD,"No.138/140 Greens Road, Negombo.",7.208614,79.840144,Cargills
1391,EX NATTANDIYA,"Kuliyapitiya Road, Naththandiya",7.397316,80.037741,Cargills
1395,EX MADAMPE,"No. 33, Station Road,Madampe",7.5216,79.8687,Cargills
1397,EX WATHUPITIWALA,"No.392,ATHTHANAGALLA ROAD, WATHUPITIWALA.",7.1231,80.11,Cargills
1721,EX LEWIS PLACE NEGOMBO,"No.132/A Poruthota Road ,Eththukala, Negombo.",7.2083,79.8358,Cargills
1729,EX NEGOMBO Y JUNCTION,"No. 297/1, Meerigama Road,Mahahunupitiya,Negombo.",7.2083,79.8358,Cargills
1731,EX RANMUTHUGALA,"No 571/4, Ranmuthugala, Kadawatha.",7.0019661,79.9512673,Cargills
1499,FC ENDERAMULLA,"No. 63 ,64 ,Dalupitiya Road, Enderamulla",6.9963743,79.9162626,Cargills
1486,FC GAMPAHA2,"No. 257 ,Colombo Road ,Gampaha.",7.0911057,79.997071,Cargills
1581,FC NITTAMBUWA 02,"Unit 2, Veyangoda Rd, Nittambuwa",7.1426,80.0938,Cargills
1586,FC GAMPAHA 03,"No. 27 ,Oruthota Road ,Gampaha.",7.077059,79.985504,Cargills
1757,EX KIRILLAWALA,"NO 538 KANDY ROAD ,KIRILLAWALA, KADAWATHA",7.0346833,79.9902341,Cargills
1577,FC KADAWATHA 03,"No.467/11,Circular Road,Kadawatha",7.0009,79.95012,Cargills
1593,FC WELIPILLAWA,"No: 408/B/1, Welipillewa, Ganemulla.",7.0448687,79.9500936,Cargills
1599,FC WELISARA 02,"No.607, Negombo Rd,Maththumagala",6.984836,79.888517,Cargills
1767,EX URAPOLA,"121/F, Ruwanwella Rd, Deenadamunuwa, Urapola",7.2723,80.5381,Cargills
1495,FC KIRIBATHGODA 02,"No.153, Makola Rd, Kiribathgoda",6.9780598,79.9273908,Cargills
1552,FC RADDOLUGAMA,"No.362 C1A NHS Road,Raddolugama",7.102881,79.889244,Cargills
1905,FC NEGOMBO 03,"No. 28, Colombo Road ,Negombo",7.246668,79.850296,Cargills
1610,FC WENNAPPUWA 02,"No. 354 ,Colombo Road, Wennappuwa.",7.295095,79.85156,Cargills
1609,FC AWARIWATTA,"No.436,Baseline  Road, Awariwatta, Katunayeke",6.921324,79.877723,Cargills
1613,FC WATTALA 02,"No.79, Negombo Road,Wattala",7.0063561,79.8969779,Cargills
1611,FC GANEMULLA 02,GANEMULLA ,7.0682842,79.9613944,Cargills
1653,FC KOCHCHIKADE NEW,KOCHCHIKADE,6.9432825,79.8549705,Cargills
1674,FC YAKKALA 02,YAKKALA ,7.0859203,80.0335639,Cargills
1677,FC NEGOMBO 04,NEGOMBO ,7.2094282,79.833117,Cargills
1792,EX MALWATHUHIRIPITIYA,MALWATHUHIRIPITIYA,7.05182,80.06536,Cargills
1839,EX YAKKALA,YAKKALA,7.0859203,80.0335639,Cargills
1855,EX MIRISWATTA,MIRISWATTA,6.0157315,80.7189695,Cargills
1856,EX KIMBULAPITIYA,KIMBULAPITIYA,7.2056808,79.8957069,Cargills
1857,EX WILIMBULA,WILIMBULA,7.0265419,80.0660285,Cargills
1861,EX KATANA,KATANA,7.2505527,79.9051957,Cargills
1871,EX PELIYAGODA (IOC),PELIYAGODA (IOC),6.9685,79.8836,Cargills
1074,FC BORALESGAMUWA,"231 , Dehiwala Road , Boralasgamuwa .",6.843037,79.9223026,Cargills
1075,FC PANADURA,"163 , Galle  Road , Panadura .",6.7093586,79.9079479,Cargills
1312,EX PANADURA,"205, Galle Road, Panadura.",6.7105538,79.9075212,Cargills
1147,FC MINUWANGODA,"40, Colombo Road,  Minuwangoda.",7.1663,79.9533,Cargills
1166,FC KATUKURUNDA,"919, Galle Road,  Katukurunda.",6.5931613,79.9591597,Cargills
1180,FC RATMALANA,"No.143,Mount City,Galle Rd,  Rathmalana.",6.826776,79.877007,Cargills
1182,FC PANADURA 2,"No.518,Galle Rd,  Panadura ( 02 ).",6.704791,79.909546,Cargills
1191,FC PEPILIYANA,"No.473/A.Colombo Road ,  Pepiliyana ,  Boralasgamuwa",6.8564851,79.8906015,Cargills
1140,FC HORANA,"No.142, Panadura Road ,  Horana.",6.7191705,80.0574859,Cargills
1184,FC RAGAMA,"No.33, Kadawatha Road, Ragama",7.028374,79.9226189,Cargills
1149,FC KALUTARA,"No.272,Galle Road,  Kalutara  South",6.704791,79.909546,Cargills
1280,FC KALUTARA NORTH,"No. 264 , Galle Road,  Kaluthara North",6.926343,79.844474,Cargills
1293,FC KESBEWA,"No. 130A,  Horana Road,   Kesbewa.",6.7870882,79.9641446,Cargills
1333,EX MORATUWELLA,"No. 487, new Galle Road, Motuwella",6.770839,79.883239,Cargills
1325,EX KIRIDIWELLA,"No.111, Radawana Road, Kirindiwela.",7.0417,80.1282,Cargills
1454,FC MORATUWA OLD RD,"No. 151, Main street, Moratuwa",6.797208,79.900936,Cargills
1330,EX MORATUMULLA,"No. 46, Main Street,Moratumulla.",6.291523,80.163099,Cargills
1456,FC RATMALANA 02,"No. 417, Galle Road, Rathmalana",6.837607,79.867514,Cargills
1463,FC HANWELLA,"No. 138/2B, Main Street, Hanwella",6.9086,80.0796,Cargills
1356,EX DIVULAPITIYA,"No.37, Bomugammana,Divulapitiya",7.256563,80.00489,Cargills
1367,EX NALLURUWA,"No.830 Galle Road,Nalluruwa",6.837607,79.867514,Cargills
1373,EX ALUBOMULLA,"No. 256, Kurusa Handiya,Alubomulla,Panadura.",6.739325,79.907792,Cargills
1369,EX PIRIVENA JUNCTION,"No. 567,Pirivena Junction,Maharagama Road,Boralasgamuwa.",6.8419428,79.9076505,Cargills
1468,FC EKALA,"No. 100, Sanasa Building,Minuwangoda Road,Ekala.",7.1043562,79.9103677,Cargills
1478,FC KESELWATTE,"No.29, Colombo Road,Keselwatta",7.091332,79.996565,Cargills
1476,FC HORANA2,"No 135, Anguruwathota Road,Horana",6.7062169,80.0689143,Cargills
1388,EX KALUTARA CENTRAL,"No 235,Central Junction,Nagoda, Kalutara South.",6.561679,79.981573,Cargills
1390,EX PUWAKPITIYA,"No. 402,404,392/E ,  Colombo Road, Puwakpitiya, Awissawella.",6.9321,80.1874,Cargills
1716,EX DELPE JUNCTION,"No 295, Kadawatha Rd, Ragama.",7.0292,79.917,Cargills
1398,EX MARADAGAHAMULLA,"No. 89, Negombo Road,Maradagahamula.",7.018267,79.899187,Cargills
1732,EX WARAGODA,"No 390, Waragoda Road, Kelaniya.",6.9580677,79.9155285,Cargills
1719,EX DALUPOTHA,"Ex Dalupotha,No 594, Chilaw Road, Negombo.",7.2194812,79.8453009,Cargills
1733,EX RATAMALANA STATION ROAD,"No 24, Sri Gnanendra Road, Ratmalana.",6.8197463,79.8682643,Cargills
1734,EX HUNUPITIYA,"No 58, Diulapitiya Road, Hunupitiya, Wattala.",6.9779,79.8898,Cargills
1737,EX KELANIYA,"No,15,Vihara MW,Cross Rd,Kelaniya",6.9553,79.922,Cargills
1742,EX ELAPITIWALA,"No 121,Elpitiwala Ragama",6.889804,79.9161922,Cargills
1748,EX KOTUGODA,"No.80/H/7 .MINUWANGODA RD, KOTUGODA.",7.1231,79.9263,Cargills
1565,FC MORATUMULLA,"No.411/1/2 ,De Zoisa Rd, Molte, Moratuwa",6.7746821,79.8826095,Cargills
1553,FC SEEDUWA 02,"No.245, Colombo Rd, Seduwa",7.091332,79.996565,Cargills
1753,EX PADUKKA,"No.49/A, Hanwella Rd, Padukka",6.8438311,80.0903874,Cargills
1755,EX DOMPE,"No: 217 J, Main Street, Dompe",9.750686,80.230401,Cargills
1754,EX NAIWALA,"Cargill Food City - Express, Reality pl. Building, Naiwala",7.1593736,80.0309,Cargills
1758,EX INGIRIYA,"No.50,Ratnapura Road,Ingiriya.",6.7438103,80.1720896,Cargills
1595,FC BANDARAGAMA 02,"No. 84 ,Panadura Road ,Bandaragama.",6.7063806,79.9745219,Cargills
1570,FC BORUPANA,"1. NO: 69/1 , BORUPANA ROAD , RATHMALANA",7.708939,81.689314,Cargills
1587,FC PALLIMULLA,"No. 170 , Old Galle ,Pallimulla ,Panadura.",6.7429608,79.9024666,Cargills
1906,FC RAWATHAWATTA,"No. 491 ,Galle Road ,Rawathawatte ,Moratuwa.",6.773,79.8816,Cargills
1904,FC RAGAMA 02,"No.15, Peralanda Rd,Ragama",7.03881,79.910512,Cargills
1769,EX MORAGAHAHENA,"No.437 S1,Moragahahena,Millewa.",6.349277,81.217459,Cargills
1617,FC KATUKURUNDA 02,"No.669 Galle Rd,Wettumakada, Katukurunda",6.5573,79.9715,Cargills
1615,FC MINUWANGODA 02,MINUWANGODA,7.1692723,79.9484613,Cargills
1656,FC PEPILIYANA 02,PEPILIYANA,6.8564851,79.8906015,Cargills
1662,FC KIRIDIWELA,KIRIDIWELA,7.0438711,80.1293739,Cargills
1685,FC AKUREGODA,AKUREGODA,6.8962824,79.9418242,Cargills
1811,EX KASAGAHAWATTA,KASAGAHAWATTA,7.090406,80.00654809,Cargills
1835,EX PAYAGALA,PAYAGALA,6.5220483,79.9787243,Cargills
1895,EX EGALOYA,EGALOYA,6.6785,80.1698,Cargills
1898,EX DUNAGAHA,DUNAGAHA,7.2312809,79.9736318,Cargills
1160,FC ATTIDIYA,"251, Main Road ,  Attidiya .",7.481132,81.691431,Cargills
1585,FC BANDARAWELA 02,"No:393,BADULLA RD,BANDARAWELA",6.8334,80.9853,Cargills
1658,FH HAVELOCK CITY,HAVELOCK CITY,,,Cargills
1673,FC WALPOLA,WALPOLA,,,Cargills
1684,FC LEWELLA,LEWELLA,,,Cargills
1686,EX ANGUNAKOLAPELASSA,ANGUNAKOLAPELASSA,,,Cargills
1687,FC ANGUNAWALA,ANGUNAWALA,,,Cargills
1688,FC NUGAWELA,NUGAWELA,,,Cargills
1689,FC CHILLAW 03,CHILLAW 03,,,Cargills
1690,FC VEYANGODA,VEYANGODA,,,Cargills
1691,FC MOUNT LAVINIA 02,MOUNT LAVINIA 02,,,Cargills
1692,FC TORRINGTON SQUARE,TORRINGTON SQUARE,,,Cargills
1693,FC KATUBEDDA (SQUARE),KATUBEDDA (SQUARE),,,Cargills
1696,FC HAKMANA,HAKMANA,,,Cargills
1860,EX POLPITHIGAMA,POLPITHIGAMA,,,Cargills
1868,EX PUTTALAM,PUTTALAM,,,Cargills
1873,EX KANDALAMA (MIRIGAMA),KANDALAMA (MIRIGAMA),,,Cargills
1880,EX HINGURAKGODA,HINGURAKGODA,,,Cargills
1881,EX ATIGALA,ATIGALA,,,Cargills
1883,EX KUMBALGAMA,KUMBALGAMA,,,Cargills
1884,EX KONDAVIL,KONDAVIL,,,Cargills
1886,EX CAPITAL HEIGHTS,CAPITAL HEIGHTS,,,Cargills
1889,EX WORLD TRADE CENTRE,WORLD TRADE CENTRE,,,Cargills
1019,EX MOUNT LAVINIA,"360 , Galle  Road , Mount Lavinia .",6.8594061,79.8640469,Cargills
1119,FC WELLAWATTE,"No:-256 3-B/1,Moor Road, Wellawatte, Colombo 06.",6.8712759,79.8618688,Cargills
1034,FC MAHARAGAMA,"75 ,  Dehiwala  Road ,  Maharagama .",6.8455645,79.9261234,Cargills
1039,FC NUGEGODA,"240 , High  Level  Road , Nugegoda",6.8682939,79.8920467,Cargills
1063,FC MALABE,"766 , Kaduwela  Road , Malabe",6.9040723,79.9546189,Cargills
1069,EX RAJAGIRIYA,"349, Cotta  Road , Rajagiriya",6.9107518,79.8925,Cargills
1038,FC PITAKOTTE,"407 , Pitta Kotte Road , Pita Kotte .",6.8905,79.9015,Cargills
1086,FC GAMPAHA,"45 , Bauddhaloka  Mawatha , Gampaha .",7.0925595,79.9951396,Cargills
1101,FC PILIYANDALA,"122/A, Kesbewa  Road , Piliyandala .",6.7999,79.9249,Cargills
1103,FC NAWALA,"264 , Nawala  Road , Nawala .",6.8855909,79.8871159,Cargills
1134,FC KARAGAMPITIYA,"176 , Hill  Street , Karagampitiya , Dehiwala",6.8506047,79.867792,Cargills
1122,FC KELANIYA,"878 , Kandy  Road , Kelaniya",6.95606,79.883368,Cargills
1132,FC HOMAGAMA,"96 , High  Level  Road , Homagama .",6.8395437,79.9896826,Cargills
1118,FC KOHUWALA,"89, S.D.S. Jayasinghe Mawatha , Kohuwala, Nugegoda .",6.8684,79.8816,Cargills
1128,FC KOLONNAWA,"Urban  Council  Premises ,  Kolonnawa , Wellampitiya .",6.93311,79.891545,Cargills
1123,FC KOTTAWA,"87 , High level  Road , Kottawa .",6.8394272,79.9712634,Cargills
1154,FC DELKANDA,"352 B, Gamsaba Junsion , Delkanda.",6.8630854,79.9014222,Cargills
1165,FC KOSWATTE,"290,  Kaduwela Road  ,  Koswatta.",7.3659684,79.8925803,Cargills
1173,FC KOHUWALA 2,"No.106/3, Dutugemunu Street,   Kohuwala",6.8671664,79.8845638,Cargills
1178,FC MAHARAGAMA 2,"No.147,High Level Rd,  Maharagama.",6.848,79.9265,Cargills
1176,FC MIRIHANA,"No.108,Jubilie Post,  Mirihana , Nugegoda.",6.8751656,79.8983616,Cargills
1177,FC NUGEGODA 2,"No.79,Stanley Thilakarathna Mawatha,  Nugegoda",6.8699688,79.8882835,Cargills
1168,FC WIJERAMA,"No.533,High Level Rd,  Wijerama  , Nugegoda.",6.8556095,79.9123739,Cargills
1197,FC ATHURUGIRIYA,"No.100, Main Road,     Athurugiriya.",6.8687,79.9998,Cargills
1285,FC PANNIPITIYA,"No.1499/A, Vidyala Junction, Hokandara Rd,  Pannipitiya",6.8462,79.9448,Cargills
1287,FC BOKUNDARA,"No. 201/1A,  Bokundara  , Piliyandala",6.7999,79.9249,Cargills
1295,FC MALABE 2,"No 162/7, Ratna Building New Kandy rd ,Weliwita Junction,  Malabe",6.9040723,79.9546189,Cargills
1290,FC BATTARAMULLA,"No. 103, Athul Kotte road,  Battaramulla.",6.8964,79.9181,Cargills
1284,FC RAJAGIRIYA 2,"No.385/01,Sri Jayawardanapura Mw,Welikada, Rajagiriya.",6.9081,79.8871,Cargills
1406,FC KOTIKAWATTA,"No.250, IDH Rd, Kotikawatta.",6.883994,79.878658,Cargills
1416,FC ETHULKOTTE,"No.906, Kotte Road, Ethul Kotte, Kotte",6.9051574,79.9055503,Cargills
1418,FC KALAPALUWAWA,"No. 21/8 Buthgamuwa Road, Kalapaluwawa, Rajagiriya",6.9162003,79.9097094,Cargills
1328,EX HABARAKADA,"No. 575/14 Borella Road, Habarakada, Homagama.",6.8656803,80.0134781,Cargills
1329,EX NEDIMALA,"No. 65 C, Pepiliyana Road, Nedimala, Dehiwala.",6.852087,79.881942,Cargills
1340,EX POLGAHAWELA,"No.23, Kurunagala Road, Polgahawela.",7.3352583,80.3002463,Cargills
1332,FC MATTEGODA,"No. 146/83, Salmal Pedesa, Mattegoda",6.8190183,79.9710195,Cargills
1452,FC THALAWATHUGODA,"No. 205/S, Pannipitiya Road, Thalawathugoda",6.866174,79.8796,Cargills
1344,EX DEPANAMA,"No. 205, Borella Road,Depanama,",6.856603,79.945244,Cargills
1348,EX PUGODA,"Cargills Food City, Hanwella Road,Kospitiyana,Pugoda.",6.926942,80.069513,Cargills
1354,EX CTG PILIYANDALA,"No. 120, CT Gardens,Gangarama Road,Thumbowila,Piliyandala.",6.8117272,79.9124112,Cargills
1346,EX MAWARAMANDIYA,"No. 470,Delgoda Road,Mawaramandiya.",6.9856,79.9745,Cargills
1465,FC DALUGAMA,"No.334/ Dalugama, Kelaniya",6.9745876,79.918335,Cargills
1362,EX PITIPANA,No. 254/ F - Avissavella rd. Homagama.,6.8412384,80.0034457,Cargills
1347,EX MULLERIYAWA,"No. 378 / Avissawella Rd, mulleriyawa, angoda.",6.9386407,79.9585745,Cargills
1363,EX SIDDAMULLA,"No: 77, Sangarama Road,Siddamulla,Piliyandala.",6.8232,79.9586,Cargills
1473,FC STANLY TMW,"No. 143/5A, Stanly Thilakarathna Mawatha, Nugegoda.",6.8699688,79.8882835,Cargills
1378,EX RUKMALGAMA,"No. 33A,107/108,Rukmalgama,Pannipitiya.",9.792227,80.075284,Cargills
1380,EX POKUNUWITA,"No.07, Colombo Road, Pokunuwita",6.7265578,80.033746,Cargills
1447,FC KOTTAWA 02,"No. 867, High level Road,Kottawa.",6.8409162,79.96593,Cargills
1382,EX ARANGALA,"No. 462/2, Arangala Junction,Hokandara",6.8911631,79.9619738,Cargills
1479,FC THALAHENA,"No. 723, Thalangama North,Thalahena",6.9060361,79.9263326,Cargills
1392,EX GONAPOLA,"No 105, Horana Road, Gonapola",6.7571552,80.0141006,Cargills
1396,EX HAVELOCK CITY,"Club House Building, No. 324 ,Havelock city , Wellawatta.",6.882749,79.866915,Cargills
1487,FC PELAWATTA 02,"No.470,  PANNIPITIYA ROAD, PELAWATTA",6.0875,80.1985,Cargills
1489,FC UDAHAMULLA,"NO. 465& 481. OLD KOTTAWA ROAD,Udahamulla",6.8643,79.9095,Cargills
1730,EX PANNIPITIYA OLD ROAD,"No 257, Old Road, Moraketiya,  Pannipitiya.",6.8462,79.9448,Cargills
1491,FC WERAHERA,"NO.202,PLILIYANDALA RD,WERAHERA,BORALESGAMUWA.",6.8382,79.9104,Cargills
1747,EX ICONIC RESIDENCE,"Iconic Residance , No 110, Parliament Rd , Rajagiriya",6.9032625,79.9107411,Cargills
1744,EX RAJAGIRIYA FAIRWAY,"No39, Perera Mawatha , Kotuwegoda",6.0240512,80.7976573,Cargills
1496,FC KAWDANA,"No.10 Attidiya Rd,Kawdana",6.8445317,79.8747511,Cargills
1750,EX MAGAMMANA,"No. 342/1 , Kahathuduwa Road ,Magammana ,Homagama",7.0103848,80.2620885,Cargills
1551,FC PILIYANDALA 02,"No.134,Moratuwa Rd,Piliyandala",6.7999,79.9249,Cargills
1493,FC HOMAGAMA 02,"NO.100, HIGHLEVEL ROAD, HOMAGAMA",6.844,80.0024,Cargills
1557,FC THALAPATHPITIYA,"270/D, Thalapathpitiya Rd, Thalapathpitiya",6.8674092,79.9158906,Cargills
1752,EX KALUBOWILA,"No.2/A, Peris Rd, Kalubovila, Dehiwala",6.8512785,79.8659769,Cargills
1568,FC MILLENNIUM CITY,"No.383,Millennium City,Oruwala,Athurugiriya",6.8772464,79.9899292,Cargills
1561,FC WELLAMPITIYA,"No.214, Colombo Road, Wellampitiya.",6.9372438,79.8962142,Cargills
1569,FC ARAWWALA,"No: 675/1, Arawwala,Pannipitiya",6.8450609,79.9525626,Cargills
1575,FC HOKANDARA,"No: 450, Pannipitiya Rd, Hokandara",6.8804849,79.9599002,Cargills
1563,FC WIJERAMA 02,"No: 562, Gangodawila, Nugegoda",6.8630437,79.8951453,Cargills
1564,FC KOLAMUNNA,"No: 78/E, Madapatha Rd, Kolomunna",5.97179,80.364592,Cargills
1580,FC KATTIYA JUNCTION,"No.30,Old kesbewa road ,Gangodawila,Nugegoda.",6.8713669,79.8945204,Cargills
1582,FC GODAGAMA,"No. 179/1 ,Borella Road ,Godagama",6.8506,80.033,Cargills
1558,FC KOSWATTE 02,"No. 07&7/3 ,Denzil Kobbekaduwa Mawatha ,Koswatta",7.3659684,79.8925803,Cargills
1588,FC HOMAGAMA 03,"192,ATHURUGIRIYA RD, HOMAGAMA",6.8591332,80.0029533,Cargills
1578,FC KELANIYA 02,"No.284, Old Kandy Road,Kelaniya",6.9553,79.922,Cargills
1583,FC SARANANKARA ROAD,"No :23 Sri Saranankara Rd, Kalubovila, Dehiwala",6.8512785,79.8659769,Cargills
1590,FC ATHURUGIRIYA 02,"No.91, Godagama Rd, Athurugiriya",6.8727391,79.9958756,Cargills
1542,FC KADUWELA 02,"No: 134 Colombo Rd,Kaduwela",6.9374389,79.9783936,Cargills
1541,FC HIMBUTANA,"No. 174 ,Himbutana Road ,Mulleriyawa.",6.9264634,79.9338846,Cargills
1596,FC MALABE 03,"No. 412/2  A-B ,Athurugiriya Road, Malabe.",6.903836,79.955196,Cargills
1903,FC KOTIKAWATTA 02,"No.161 kudabothgamuwa, Angoda",7.2467,80.4836,Cargills
1771,EX JAYA MAWATHA,"No.1794, Jaya Mawatha, Dedigamuwa",7.061057,79.925973,Cargills
1540,FC DEPANAMA,DEPANAMA,6.856603,79.945244,Cargills
1547,FC GOTHATUWA IDH,GOTHATUWA IDH,6.9229733,79.9134297,Cargills
1618,FC POLGASOWITA,POLGASOWITA,6.7873127,79.963865,Cargills
1652,FC KIRIBATHGODA 03,KIRIBATHGODA,6.9780598,79.9273908,Cargills
1654,FC MAHARA,MAHARA,6.9913028,79.9393751,Cargills
1657,FC OBESEKARAPURA,OBESEKARAPURA,6.9209498,79.8928718,Cargills
1665,FC KIRIBATHGODA 04,KIRIBATHGODA ,6.9780598,79.9273908,Cargills
1679,FC HOKANDARA 02,HOKANDARA ,6.8804849,79.9599002,Cargills
1681,FC PITAKOTTE 02,PITAKOTTE ,6.8840744,79.9020482,Cargills
1682,FC DELKANDA 02,DELKANDA ,6.8630854,79.9014222,Cargills
1683,FC ATTIDIYA 02,ATTIDIYA ,6.8398379,79.8846783,Cargills
1698,FC KOTTAWA 03,KOTTAWA ,6.1022349,80.3185755,Cargills
1794,EX MILLENNIUM CITY,MILLENNIUM CITY,7.121858,79.908235,Cargills
1833,EX NSBM,NSBM,6.8208936,80.03972289,Cargills
1894,EX HOMAGAMA (KATUWANA ROAD),HOMAGAMA (KATUWANA ROAD),6.83535,80.0030607,Cargills
1907,FC RAJAGIRIYA 03,RAJAGIRIYA ,6.9095041,79.8962176,Cargills
